{
  "type": "FeatureCollection",
  "features": [
    {
      "type": "Feature",
      "properties": {
        "norad_id": 37836,
        "name": "EUTELSAT 16A",
        "group": "eutelsat",
        "lat": 0.055793743714059346,
        "lon": 44.16881471565059,
        "alt_km": 35806.0058653559,
        "timestamp": "2025-12-09T20:37:08.953208+00:00",
        "meta_object_name": "EUTELSAT 16A",
        "meta_object_id": "2011-057A",
        "meta_epoch": "2025-12-09T13:38:59.739936",
        "meta_mean_motion": 1.0027106,
        "meta_eccentricity": 0.00059516,
        "meta_inclination": 0.0582,
        "meta_ra_of_asc_node": 2.0567,
        "meta_arg_of_pericenter": 260.4789,
        "meta_mean_anomaly": 36.77,
        "meta_ephemeris_type": 0,
        "meta_classification_type": "U",
        "meta_norad_cat_id": 37836,
        "meta_element_set_no": 999,
        "meta_rev_at_epoch": 542,
        "meta_bstar": 0,
        "meta_mean_motion_dot": 1.06e-06,
        "meta_mean_motion_ddot": 0,
        "tle_line1": "1 37836U 11057A   25343.56874699  .00000106  00000+0  00000+0 0  9997",
        "tle_line2": "2 37836   0.0582   2.0567 0005951 260.4789  36.7700  1.00271060  5421"
      },
      "geometry": {
        "type": "Point",
        "coordinates": [
          44.16881471565059,
          0.055793743714059346
        ]
      }
    },
    {
      "type": "Feature",
      "properties": {
        "norad_id": 38992,
        "name": "EUTELSAT 21B",
        "group": "eutelsat",
        "lat": 0.06924292434942358,
        "lon": 49.74561260231108,
        "alt_km": 35797.18925668521,
        "timestamp": "2025-12-09T20:37:08.953220+00:00",
        "meta_object_name": "EUTELSAT 21B",
        "meta_object_id": "2012-062B",
        "meta_epoch": "2025-12-09T13:40:29.595936",
        "meta_mean_motion": 1.0027108,
        "meta_eccentricity": 0.00032685,
        "meta_inclination": 0.0662,
        "meta_ra_of_asc_node": 358.923,
        "meta_arg_of_pericenter": 268.5453,
        "meta_mean_anomaly": 37.8092,
        "meta_ephemeris_type": 0,
        "meta_classification_type": "U",
        "meta_norad_cat_id": 38992,
        "meta_element_set_no": 999,
        "meta_rev_at_epoch": 4792,
        "meta_bstar": 0,
        "meta_mean_motion_dot": 1.32e-06,
        "meta_mean_motion_ddot": 0,
        "tle_line1": "1 38992U 12062B   25343.56978699  .00000132  00000+0  00000+0 0  9992",
        "tle_line2": "2 38992   0.0662 358.9230 0003268 268.5453  37.8092  1.00271080 47929"
      },
      "geometry": {
        "type": "Point",
        "coordinates": [
          49.74561260231108,
          0.06924292434942358
        ]
      }
    },
    {
      "type": "Feature",
      "properties": {
        "norad_id": 39020,
        "name": "EUTELSAT 70B",
        "group": "eutelsat",
        "lat": 0.07375851226097012,
        "lon": 98.61713186207166,
        "alt_km": 35801.2697201474,
        "timestamp": "2025-12-09T20:37:08.953232+00:00",
        "meta_object_name": "EUTELSAT 70B",
        "meta_object_id": "2012-069A",
        "meta_epoch": "2025-12-09T13:54:28.257408",
        "meta_mean_motion": 1.00271576,
        "meta_eccentricity": 0.00043701,
        "meta_inclination": 0.0646,
        "meta_ra_of_asc_node": 338.8281,
        "meta_arg_of_pericenter": 264.6385,
        "meta_mean_anomaly": 114.2377,
        "meta_ephemeris_type": 0,
        "meta_classification_type": "U",
        "meta_norad_cat_id": 39020,
        "meta_element_set_no": 999,
        "meta_rev_at_epoch": 4760,
        "meta_bstar": 0,
        "meta_mean_motion_dot": -4.1e-07,
        "meta_mean_motion_ddot": 0,
        "tle_line1": "1 39020U 12069A   25343.57949372 -.00000041  00000+0  00000+0 0  9999",
        "tle_line2": "2 39020   0.0646 338.8281 0004370 264.6385 114.2377  1.00271576 47604"
      },
      "geometry": {
        "type": "Point",
        "coordinates": [
          98.61713186207166,
          0.07375851226097012
        ]
      }
    },
    {
      "type": "Feature",
      "properties": {
        "norad_id": 39122,
        "name": "EUTELSAT 117 WEST A",
        "group": "eutelsat",
        "lat": -0.03171859304338432,
        "lon": -88.66948049822565,
        "alt_km": 35773.607535949566,
        "timestamp": "2025-12-09T20:37:08.953244+00:00",
        "meta_object_name": "EUTELSAT 117 WEST A",
        "meta_object_id": "2013-012A",
        "meta_epoch": "2025-12-09T13:10:20.257248",
        "meta_mean_motion": 1.00270755,
        "meta_eccentricity": 0.00030664,
        "meta_inclination": 0.0129,
        "meta_ra_of_asc_node": 349.0918,
        "meta_arg_of_pericenter": 271.5504,
        "meta_mean_anomaly": 258.6774,
        "meta_ephemeris_type": 0,
        "meta_classification_type": "U",
        "meta_norad_cat_id": 39122,
        "meta_element_set_no": 999,
        "meta_rev_at_epoch": 4653,
        "meta_bstar": 0,
        "meta_mean_motion_dot": -1e-07,
        "meta_mean_motion_ddot": 0,
        "tle_line1": "1 39122U 13012A   25343.54884557 -.00000010  00000+0  00000+0 0  9997",
        "tle_line2": "2 39122   0.0129 349.0918 0003066 271.5504 258.6774  1.00270755 46538"
      },
      "geometry": {
        "type": "Point",
        "coordinates": [
          -88.66948049822565,
          -0.03171859304338432
        ]
      }
    },
    {
      "type": "Feature",
      "properties": {
        "norad_id": 39163,
        "name": "EUTELSAT 7B",
        "group": "eutelsat",
        "lat": 0.03882751627023544,
        "lon": 35.166487172497014,
        "alt_km": 35782.97038888042,
        "timestamp": "2025-12-09T20:37:08.953257+00:00",
        "meta_object_name": "EUTELSAT 7B",
        "meta_object_id": "2013-022A",
        "meta_epoch": "2025-12-09T13:36:22.491072",
        "meta_mean_motion": 1.00271707,
        "meta_eccentricity": 0.00045628,
        "meta_inclination": 0.0707,
        "meta_ra_of_asc_node": 14.9491,
        "meta_arg_of_pericenter": 299.7285,
        "meta_mean_anomaly": 334.959,
        "meta_ephemeris_type": 0,
        "meta_classification_type": "U",
        "meta_norad_cat_id": 39163,
        "meta_element_set_no": 999,
        "meta_rev_at_epoch": 4605,
        "meta_bstar": 0,
        "meta_mean_motion_dot": 5e-07,
        "meta_mean_motion_ddot": 0,
        "tle_line1": "1 39163U 13022A   25343.56692698  .00000050  00000+0  00000+0 0  9991",
        "tle_line2": "2 39163   0.0707  14.9491 0004562 299.7285 334.9590  1.00271707 46058"
      },
      "geometry": {
        "type": "Point",
        "coordinates": [
          35.166487172497014,
          0.03882751627023544
        ]
      }
    },
    {
      "type": "Feature",
      "properties": {
        "norad_id": 39612,
        "name": "EXPRESS-AT1",
        "group": "eutelsat",
        "lat": 0.016707222997052015,
        "lon": 84.11487228729025,
        "alt_km": 35787.5512025945,
        "timestamp": "2025-12-09T20:37:08.953269+00:00",
        "meta_object_name": "EXPRESS-AT1",
        "meta_object_id": "2014-010A",
        "meta_epoch": "2025-12-09T13:50:21.151680",
        "meta_mean_motion": 1.00270428,
        "meta_eccentricity": 5.73e-05,
        "meta_inclination": 0.0121,
        "meta_ra_of_asc_node": 285.2569,
        "meta_arg_of_pericenter": 276.1552,
        "meta_mean_anomaly": 140.7355,
        "meta_ephemeris_type": 0,
        "meta_classification_type": "U",
        "meta_norad_cat_id": 39612,
        "meta_element_set_no": 999,
        "meta_rev_at_epoch": 4291,
        "meta_bstar": 0,
        "meta_mean_motion_dot": 8.1e-07,
        "meta_mean_motion_ddot": 0,
        "tle_line1": "1 39612U 14010A   25343.57663370  .00000081  00000+0  00000+0 0  9998",
        "tle_line2": "2 39612   0.0121 285.2569 0000573 276.1552 140.7355  1.00270428 42912"
      },
      "geometry": {
        "type": "Point",
        "coordinates": [
          84.11487228729025,
          0.016707222997052015
        ]
      }
    },
    {
      "type": "Feature",
      "properties": {
        "norad_id": 39613,
        "name": "EXPRESS-AT2",
        "group": "eutelsat",
        "lat": -0.015025241515544853,
        "lon": 167.97814928748352,
        "alt_km": 35789.04545726529,
        "timestamp": "2025-12-09T20:37:08.953281+00:00",
        "meta_object_name": "EXPRESS-AT2",
        "meta_object_id": "2014-010B",
        "meta_epoch": "2025-12-09T14:54:38.530656",
        "meta_mean_motion": 1.00272354,
        "meta_eccentricity": 0.00015613,
        "meta_inclination": 0.0193,
        "meta_ra_of_asc_node": 314.24,
        "meta_arg_of_pericenter": 331.8795,
        "meta_mean_anomaly": 156.0161,
        "meta_ephemeris_type": 0,
        "meta_classification_type": "U",
        "meta_norad_cat_id": 39613,
        "meta_element_set_no": 999,
        "meta_rev_at_epoch": 4259,
        "meta_bstar": 0,
        "meta_mean_motion_dot": -2.78e-06,
        "meta_mean_motion_ddot": 0,
        "tle_line1": "1 39613U 14010B   25343.62127929 -.00000278  00000+0  00000+0 0  9999",
        "tle_line2": "2 39613   0.0193 314.2400 0001561 331.8795 156.0161  1.00272354 42594"
      },
      "geometry": {
        "type": "Point",
        "coordinates": [
          167.97814928748352,
          -0.015025241515544853
        ]
      }
    }
  ]
}